CCSDS_OMM_VERS,COMMENT,CREATION_DATE,ORIGINATOR,OBJECT_NAME,OBJECT_ID,CENTER_NAME,REF_FRAME,TIME_SYSTEM,MEAN_ELEMENT_THEORY,EPOCH,MEAN_MOTION,ECCENTRICITY,INCLINATION,RA_OF_ASC_NODE,ARG_OF_PERICENTER,MEAN_ANOMALY,EPHEMERIS_TYPE,CLASSIFICATION_TYPE,NORAD_CAT_ID,ELEMENT_SET_NO,REV_AT_EPOCH,BSTAR,MEAN_MOTION_DOT,MEAN_MOTION_DDOT,SEMIMAJOR_AXIS,PERIOD,APOAPSIS,PERIAPSIS,OBJECT_TYPE,RCS_SIZE,COUNTRY_CODE,LAUNCH_DATE,SITE,DECAY_DATE,FILE,GP_ID,TLE_LINE0,TLE_LINE1,TLE_LINE2
2,GENERATED VIA SPACE-TRACK.ORG API,2004-08-17T15:22:48,18 SPCS,JCSAT 2,1990-001B,EARTH,TEME,UTC,SGP4,1998-12-22T15:40:01.788672,1.00271462,0.0002038,0.0162,21.9838,241.8566,216.1726,0,U,20402,999,1618,0.0001,-1.57e-06,0,42164.849,1436.101,35795.307,35778.121,PAYLOAD,MEDIUM,JPN,1990-01-01,AFETR,,35505,29255752,0 JCSAT 2,1 20402U 90001B   98356.65279848 -.00000157  00000-0  10000-3 0  9996,2 20402 000.0162 021.9838 0002038 241.8566 216.1726 01.00271462 16189
2,GENERATED VIA SPACE-TRACK.ORG API,2004-08-17T15:22:48,18 SPCS,JCSAT 2,1990-001B,EARTH,TEME,UTC,SGP4,1998-12-25T15:03:40.999967,1.00269944,0.0003566,0.0148,352.3714,187.4346,294.0595,0,U,20402,999,1621,0.0001,-1.61e-06,0,42165.275,1436.123,35802.176,35772.103,PAYLOAD,MEDIUM,JPN,1990-01-01,AFETR,,35505,29274150,0 JCSAT 2,1 20402U 90001B   98359.62755787 -.00000161  00000-0  10000-3 0  9992,2 20402 000.0148 352.3714 0003566 187.4346 294.0595 01.00269944 16210
2,GENERATED VIA SPACE-TRACK.ORG API,2004-08-17T15:23:03,18 SPCS,JCSAT 2,1990-001B,EARTH,TEME,UTC,SGP4,1999-01-03T08:48:41.760000,1.00271136,0.0002722,0.0085,2.5045,278.5856,107.6176,0,U,20402,999,1630,0.0001,-1.77e-06,0,42164.94,1436.106,35798.283,35775.328,PAYLOAD,MEDIUM,JPN,1990-01-01,AFETR,,35510,29359382,0 JCSAT 2,1 20402U 90001B   99003.36715000 -.00000177 +00000-0 +10000-3 0  9991,2 20402 000.0085 002.5045 0002722 278.5856 107.6176 01.00271136016302
2,GENERATED VIA SPACE-TRACK.ORG API,2004-08-17T15:23:03,18 SPCS,JCSAT 2,1990-001B,EARTH,TEME,UTC,SGP4,1999-01-04T14:24:17.999712,1.0027029,0.0003475,0.0094,8.2019,280.9088,184.6922,0,U,20402,999,1631,0.0001,-1.77e-06,0,42165.178,1436.118,35801.695,35772.39,PAYLOAD,MEDIUM,JPN,1990-01-01,AFETR,,35510,29372429,0 JCSAT 2,1 20402U 90001B   99004.60020833 -.00000177 +00000-0 +10000-3 0  9992,2 20402 000.0094 008.2019 0003475 280.9088 184.6922 01.00270290016311
2,GENERATED VIA SPACE-TRACK.ORG API,2004-08-17T15:23:30,18 SPCS,JCSAT 2,1990-001B,EARTH,TEME,UTC,SGP4,1999-01-13T08:31:39.560736,1.00271007,0.0006021,0.0094,7.1521,301.3849,85.7183,0,U,20402,999,1640,0.0001,-1.59e-06,0,42164.977,1436.108,35812.229,35761.454,PAYLOAD,MEDIUM,JPN,1990-01-01,AFETR,,35519,29448056,0 JCSAT 2,1 20402U 90001B   99013.35531899 -.00000159 +00000-0 +10000-3 0  9993,2 20402 000.0094 007.1521 0006021 301.3849 085.7183 01.00271007016407
2,GENERATED VIA SPACE-TRACK.ORG API,2004-08-17T15:23:30,18 SPCS,JCSAT 2,1990-001B,EARTH,TEME,UTC,SGP4,1999-01-18T11:47:54.870719,1.00265222,0.000602,0.0096,7.0832,301.5449,139.5065,0,U,20402,999,1645,0.0001,-1.66e-06,0,42166.598,1436.19,35813.848,35763.079,PAYLOAD,MEDIUM,JPN,1990-01-01,AFETR,,35519,29476844,0 JCSAT 2,1 20402U 90001B   99018.49160730 -.00000166  00000-0  10000-3 0  9993,2 20402 000.0096 007.0832 0006020 301.5449 139.5065 01.00265222 16454
2,GENERATED VIA SPACE-TRACK.ORG API,2004-08-17T15:23:51,18 SPCS,JCSAT 2,1990-001B,EARTH,TEME,UTC,SGP4,1999-01-27T14:23:09.788639,1.00270306,0.0001534,0.007,356.1217,296.7797,203.2984,0,U,20402,999,1654,0.0001,-1.79e-06,0,42165.173,1436.118,35793.506,35780.57,PAYLOAD,MEDIUM,JPN,1990-01-01,AFETR,,35526,29557547,0 JCSAT 2,1 20402U 90001B   99027.59941885 -.00000179 +00000-0 +10000-3 0  9996,2 20402 000.0070 356.1217 0001534 296.7797 203.2984 01.00270306016545
2,GENERATED VIA SPACE-TRACK.ORG API,2004-08-17T15:23:51,18 SPCS,JCSAT 2,1990-001B,EARTH,TEME,UTC,SGP4,1999-01-28T05:54:42.499872,1.00270072,0.0001159,0.0105,315.009,342.5576,72.1481,0,U,20402,999,1655,0.0001,-1.81e-06,0,42165.239,1436.121,35791.991,35782.217,PAYLOAD,MEDIUM,JPN,1990-01-01,AFETR,,35526,29566007,0 JCSAT 2,1 20402U 90001B   99028.24632523 -.00000181 +00000-0 +10000-3 0  9998,2 20402 000.0105 315.0090 0001159 342.5576 072.1481 01.00270072016551
2,GENERATED VIA SPACE-TRACK.ORG API,2004-08-17T15:23:51,18 SPCS,JCSAT 2,1990-001B,EARTH,TEME,UTC,SGP4,1999-01-28T07:33:32.770367,1.00267048,0.0001317,0.0144,348.6147,294.8402,111.03,0,U,20402,999,1655,0.0001,0.0,0,42166.086,1436.164,35793.505,35782.398,PAYLOAD,MEDIUM,JPN,1990-01-01,AFETR,,35526,29557548,0 JCSAT 2,1 20402U 90001B   99028.31496262  .00000000  00000-0  10000-3 0  9993,2 20402 000.0144 348.6147 0001317 294.8402 111.0300 01.00267048 16554
2,GENERATED VIA SPACE-TRACK.ORG API,2004-08-17T15:23:51,18 SPCS,JCSAT 2,1990-001B,EARTH,TEME,UTC,SGP4,1999-01-30T12:31:33.621024,1.00269779,0.0001175,0.0106,318.0346,343.8385,169.2823,0,U,20402,999,1657,0.0001,-1.86e-06,0,42165.321,1436.125,35792.14,35782.231,PAYLOAD,MEDIUM,JPN,1990-01-01,AFETR,,35526,29587600,0 JCSAT 2,1 20402U 90001B   99030.52191691 -.00000186  00000-0  10000-3 0  9993,2 20402 000.0106 318.0346 0001175 343.8385 169.2823 01.00269779 16571
2,GENERATED VIA SPACE-TRACK.ORG API,2004-08-17T15:23:51,18 SPCS,JCSAT 2,1990-001B,EARTH,TEME,UTC,SGP4,1999-01-31T02:37:13.999584,1.0026971,0.0001264,0.0068,343.6357,310.9722,28.5419,0,U,20402,999,1657,0.0001,-1.86e-06,0,42165.34,1436.126,35792.535,35781.875,PAYLOAD,MEDIUM,JPN,1990-01-01,AFETR,,35526,29587601,0 JCSAT 2,1 20402U 90001B   99031.10918981 -.00000186 +00000-0 +10000-3 0  9997,2 20402 000.0068 343.6357 0001264 310.9722 028.5419 01.00269710016576
2,GENERATED VIA SPACE-TRACK.ORG API,2004-08-17T15:23:51,18 SPCS,JCSAT 2,1990-001B,EARTH,TEME,UTC,SGP4,1999-01-31T16:55:58.567007,1.00269623,0.0001245,0.0051,350.9414,302.6651,244.8123,0,U,20402,999,1658,0.0001,-1.87e-06,0,42165.365,1436.127,35792.479,35781.98,PAYLOAD,MEDIUM,JPN,1990-01-01,AFETR,,35526,29587602,0 JCSAT 2,1 20402U 90001B   99031.70553897 -.00000187 +00000-0 +10000-3 0  9995,2 20402 000.0051 350.9414 0001245 302.6651 244.8123 01.00269623016580
2,GENERATED VIA SPACE-TRACK.ORG API,2004-08-17T15:23:51,18 SPCS,JCSAT 2,1990-001B,EARTH,TEME,UTC,SGP4,1999-02-01T02:45:34.500096,1.00269607,0.0001337,0.0061,356.6823,292.6751,36.8639,0,U,20402,999,1658,0.0001,-1.87e-06,0,42165.369,1436.128,35792.872,35781.596,PAYLOAD,MEDIUM,JPN,1990-01-01,AFETR,,35526,29587603,0 JCSAT 2,1 20402U 90001B   99032.11498264 -.00000187  00000-0  10000-3 0  9997,2 20402 000.0061 356.6823 0001337 292.6751 036.8639 01.00269607 16582
2,GENERATED VIA SPACE-TRACK.ORG API,2004-08-17T15:24:12,18 SPCS,JCSAT 2,1990-001B,EARTH,TEME,UTC,SGP4,1999-02-02T10:40:22.640736,1.00271577,0.0002191,0.0322,306.836,5.8651,133.5423,0,U,20402,999,1660,0.0001,-1.85e-06,0,42164.817,1436.099,35795.92,35777.443,PAYLOAD,MEDIUM,JPN,1990-01-01,AFETR,,35533,29647882,0 JCSAT 2,1 20402U 90001B   99033.44470649 -.00000185 +00000-0 +10000-3 0  9999,2 20402 000.0322 306.8360 0002191 005.8651 133.5423 01.00271577016605
2,GENERATED VIA SPACE-TRACK.ORG API,2004-08-17T15:24:12,18 SPCS,JCSAT 2,1990-001B,EARTH,TEME,UTC,SGP4,1999-02-08T10:23:18.352320,1.0027174,0.0002197,0.0286,312.3776,9.0808,126.4373,0,U,20402,999,1666,0.0001,-1.71e-06,0,42164.771,1436.097,35795.9,35777.372,PAYLOAD,MEDIUM,JPN,1990-01-01,AFETR,,35533,29661649,0 JCSAT 2,1 20402U 90001B   99039.43285130 -.00000171 +00000-0 +10000-3 0  9998,2 20402 000.0286 312.3776 0002197 009.0808 126.4373 01.00271740016666
2,GENERATED VIA SPACE-TRACK.ORG API,2004-08-17T15:24:21,18 SPCS,JCSAT 2,1990-001B,EARTH,TEME,UTC,SGP4,1999-02-11T06:00:10.545120,1.0026583,0.0003194,0.0264,340.2765,355.5485,49.0175,0,U,20402,999,1669,0.0001,0.0,0,42166.428,1436.182,35801.761,35774.825,PAYLOAD,MEDIUM,JPN,1990-01-01,AFETR,,35536,29798632,0 JCSAT 2,1 20402U 90001B   99042.25012205  .00000000  00000-0  10000-3 0  9993,2 20402 000.0264 340.2765 0003194 355.5485 049.0175 01.00265830 16694
2,GENERATED VIA SPACE-TRACK.ORG API,2004-08-17T15:24:21,18 SPCS,JCSAT 2,1990-001B,EARTH,TEME,UTC,SGP4,1999-02-11T08:40:39.449280,1.00271442,0.0002191,0.032,303.6351,19.4726,102.0137,0,U,20402,999,1669,0.0001,-1.69e-06,0,42164.855,1436.101,35795.958,35777.481,PAYLOAD,MEDIUM,JPN,1990-01-01,AFETR,,35536,29798633,0 JCSAT 2,1 20402U 90001B   99042.36156770 -.00000169  00000-0  10000-3 0  9998,2 20402 000.0320 303.6351 0002191 019.4726 102.0137 01.00271442 16695
2,GENERATED VIA SPACE-TRACK.ORG API,2004-08-17T15:24:21,18 SPCS,JCSAT 2,1990-001B,EARTH,TEME,UTC,SGP4,1999-02-14T11:39:29.761632,1.00271038,0.0002178,0.0255,295.5849,28.5743,148.7456,0,U,20402,999,1672,0.0001,-1.72e-06,0,42164.968,1436.107,35796.016,35777.649,PAYLOAD,MEDIUM,JPN,1990-01-01,AFETR,,35536,29827315,0 JCSAT 2,1 20402U 90001B   99045.48576113 -.00000172 +00000-0 +10000-3 0  9995,2 20402 000.0255 295.5849 0002178 028.5743 148.7456 01.00271038016724
2,GENERATED VIA SPACE-TRACK.ORG API,2004-08-17T15:24:33,18 SPCS,JCSAT 2,1990-001B,EARTH,TEME,UTC,SGP4,1999-02-15T10:40:16.370688,1.00270907,0.0002215,0.0235,297.5983,26.5462,134.897,0,U,20402,999,1673,0.0001,-1.73e-06,0,42165.005,1436.109,35796.209,35777.53,PAYLOAD,MEDIUM,JPN,1990-01-01,AFETR,,35540,29840870,0 JCSAT 2,1 20402U 90001B   99046.44463392 -.00000173 +00000-0 +10000-3 0  9997,2 20402 000.0235 297.5983 0002215 026.5462 134.8970 01.00270907016733
2,GENERATED VIA SPACE-TRACK.ORG API,2004-08-17T15:24:33,18 SPCS,JCSAT 2,1990-001B,EARTH,TEME,UTC,SGP4,1999-02-16T09:52:55.070400,1.00270792,0.0002171,0.0221,296.8021,27.7254,123.6257,0,U,20402,999,1674,0.0001,-1.75e-06,0,42165.037,1436.111,35796.056,35777.748,PAYLOAD,MEDIUM,JPN,1990-01-01,AFETR,,35540,29840871,0 JCSAT 2,1 20402U 90001B   99047.41174850 -.00000175  00000-0  10000-3 0  9995,2 20402 000.0221 296.8021 0002171 027.7254 123.6257 01.00270792 16743
